CCSDS_OMM_VERS = 2.0
CREATION_DATE  = 
ORIGINATOR     = 

OBJECT_NAME    = STARLINK-35516
OBJECT_ID      = 2025-225J
CENTER_NAME    = EARTH
REF_FRAME      = TEME
TIME_SYSTEM    = UTC
MEAN_ELEMENT_THEORY = SGP/SGP4

EPOCH          = 2025-11-04T06:00:02.000160
MEAN_MOTION    = 15.49244233
ECCENTRICITY   = .00011218
INCLINATION    = 53.1608
RA_OF_ASC_NODE = 30.3626
ARG_OF_PERICENTER = 96.2761
MEAN_ANOMALY   = 283.6653

EPHEMERIS_TYPE = 0
CLASSIFICATION_TYPE = U
NORAD_CAT_ID   = 65918
ELEMENT_SET_NO = 999
REV_AT_EPOCH   = 523
BSTAR          = .16199272E-2
MEAN_MOTION_DOT = .90488E-3
MEAN_MOTION_DDOT = 0

CCSDS_OMM_VERS = 2.0
CREATION_DATE  = 
ORIGINATOR     = 

OBJECT_NAME    = STARLINK-35519
OBJECT_ID      = 2025-225K
CENTER_NAME    = EARTH
REF_FRAME      = TEME
TIME_SYSTEM    = UTC
MEAN_ELEMENT_THEORY = SGP/SGP4

EPOCH          = 2025-11-04T06:00:02.000160
MEAN_MOTION    = 15.49246859
ECCENTRICITY   = .00011954
INCLINATION    = 53.1607
RA_OF_ASC_NODE = 30.3547
ARG_OF_PERICENTER = 98.7199
MEAN_ANOMALY   = 285.0519

EPHEMERIS_TYPE = 0
CLASSIFICATION_TYPE = U
NORAD_CAT_ID   = 65919
ELEMENT_SET_NO = 999
REV_AT_EPOCH   = 523
BSTAR          = .15313578E-2
MEAN_MOTION_DOT = .85469E-3
MEAN_MOTION_DDOT = 0

CCSDS_OMM_VERS = 2.0
CREATION_DATE  = 
ORIGINATOR     = 

OBJECT_NAME    = STARLINK-33902
OBJECT_ID      = 2025-225L
CENTER_NAME    = EARTH
REF_FRAME      = TEME
TIME_SYSTEM    = UTC
MEAN_ELEMENT_THEORY = SGP/SGP4

EPOCH          = 2025-11-04T06:00:02.000160
MEAN_MOTION    = 15.49242844
ECCENTRICITY   = .00010448
INCLINATION    = 53.1611
RA_OF_ASC_NODE = 30.3503
ARG_OF_PERICENTER = 89.9864
MEAN_ANOMALY   = 295.7036

EPHEMERIS_TYPE = 0
CLASSIFICATION_TYPE = U
NORAD_CAT_ID   = 65920
ELEMENT_SET_NO = 999
REV_AT_EPOCH   = 522
BSTAR          = .16766349E-2
MEAN_MOTION_DOT = .93706E-3
MEAN_MOTION_DDOT = 0

CCSDS_OMM_VERS = 2.0
CREATION_DATE  = 
ORIGINATOR     = 

OBJECT_NAME    = STARLINK-35530
OBJECT_ID      = 2025-225M
CENTER_NAME    = EARTH
REF_FRAME      = TEME
TIME_SYSTEM    = UTC
MEAN_ELEMENT_THEORY = SGP/SGP4

EPOCH          = 2025-11-04T06:00:02.000160
MEAN_MOTION    = 15.49249127
ECCENTRICITY   = .00010248
INCLINATION    = 53.1606
RA_OF_ASC_NODE = 30.3468
ARG_OF_PERICENTER = 92.5305
MEAN_ANOMALY   = 295.0762

EPHEMERIS_TYPE = 0
CLASSIFICATION_TYPE = U
NORAD_CAT_ID   = 65921
ELEMENT_SET_NO = 999
REV_AT_EPOCH   = 518
BSTAR          = .14261287E-2
MEAN_MOTION_DOT = .7951E-3
MEAN_MOTION_DDOT = 0

CCSDS_OMM_VERS = 2.0
CREATION_DATE  = 
ORIGINATOR     = 

OBJECT_NAME    = STARLINK-35544
OBJECT_ID      = 2025-225N
CENTER_NAME    = EARTH
REF_FRAME      = TEME
TIME_SYSTEM    = UTC
MEAN_ELEMENT_THEORY = SGP/SGP4

EPOCH          = 2025-11-04T06:00:02.000160
MEAN_MOTION    = 15.49246269
ECCENTRICITY   = .00009741
INCLINATION    = 53.1610
RA_OF_ASC_NODE = 30.3426
ARG_OF_PERICENTER = 87.7163
MEAN_ANOMALY   = 301.8059

EPHEMERIS_TYPE = 0
CLASSIFICATION_TYPE = U
NORAD_CAT_ID   = 65922
ELEMENT_SET_NO = 999
REV_AT_EPOCH   = 524
BSTAR          = .15932245E-2
MEAN_MOTION_DOT = .88978E-3
MEAN_MOTION_DDOT = 0

CCSDS_OMM_VERS = 2.0
CREATION_DATE  = 
ORIGINATOR     = 

OBJECT_NAME    = STARLINK-35484
OBJECT_ID      = 2025-225P
CENTER_NAME    = EARTH
REF_FRAME      = TEME
TIME_SYSTEM    = UTC
MEAN_ELEMENT_THEORY = SGP/SGP4

EPOCH          = 2025-11-04T06:00:02.000160
MEAN_MOTION    = 15.49311206
ECCENTRICITY   = .00010057
INCLINATION    = 53.1607
RA_OF_ASC_NODE = 30.3386
ARG_OF_PERICENTER = 100.9645
MEAN_ANOMALY   = 290.4491

EPHEMERIS_TYPE = 0
CLASSIFICATION_TYPE = U
NORAD_CAT_ID   = 65923
ELEMENT_SET_NO = 999
REV_AT_EPOCH   = 524
BSTAR          = -.40309051E-3
MEAN_MOTION_DOT = -.22802E-3
MEAN_MOTION_DDOT = 0

CCSDS_OMM_VERS = 2.0
CREATION_DATE  = 
ORIGINATOR     = 

OBJECT_NAME    = STARLINK-34994
OBJECT_ID      = 2025-225Q
CENTER_NAME    = EARTH
REF_FRAME      = TEME
TIME_SYSTEM    = UTC
MEAN_ELEMENT_THEORY = SGP/SGP4

EPOCH          = 2025-11-04T06:00:02.000160
MEAN_MOTION    = 15.49240793
ECCENTRICITY   = .00010744
INCLINATION    = 53.1607
RA_OF_ASC_NODE = 30.3346
ARG_OF_PERICENTER = 99.2533
MEAN_ANOMALY   = 294.0950

EPHEMERIS_TYPE = 0
CLASSIFICATION_TYPE = U
NORAD_CAT_ID   = 65924
ELEMENT_SET_NO = 999
REV_AT_EPOCH   = 524
BSTAR          = .24235952E-2
MEAN_MOTION_DOT = .136392E-2
MEAN_MOTION_DDOT = 0

CCSDS_OMM_VERS = 2.0
CREATION_DATE  = 
ORIGINATOR     = 

OBJECT_NAME    = STARLINK-35458
OBJECT_ID      = 2025-225R
CENTER_NAME    = EARTH
REF_FRAME      = TEME
TIME_SYSTEM    = UTC
MEAN_ELEMENT_THEORY = SGP/SGP4

EPOCH          = 2025-11-04T06:00:02.000160
MEAN_MOTION    = 15.49249287
ECCENTRICITY   = .00010564
INCLINATION    = 53.1607
RA_OF_ASC_NODE = 30.3261
ARG_OF_PERICENTER = 103.5384
MEAN_ANOMALY   = 293.6509

EPHEMERIS_TYPE = 0
CLASSIFICATION_TYPE = U
NORAD_CAT_ID   = 65925
ELEMENT_SET_NO = 999
REV_AT_EPOCH   = 524
BSTAR          = .14072036E-2
MEAN_MOTION_DOT = .78438E-3
MEAN_MOTION_DDOT = 0

CCSDS_OMM_VERS = 2.0
CREATION_DATE  = 
ORIGINATOR     = 

OBJECT_NAME    = STARLINK-35492
OBJECT_ID      = 2025-225S
CENTER_NAME    = EARTH
REF_FRAME      = TEME
TIME_SYSTEM    = UTC
MEAN_ELEMENT_THEORY = SGP/SGP4

EPOCH          = 2025-11-04T06:00:02.000160
MEAN_MOTION    = 15.49316567
ECCENTRICITY   = .00009415
INCLINATION    = 53.1607
RA_OF_ASC_NODE = 30.3302
ARG_OF_PERICENTER = 104.7155
MEAN_ANOMALY   = 290.5321

EPHEMERIS_TYPE = 0
CLASSIFICATION_TYPE = U
NORAD_CAT_ID   = 65926
ELEMENT_SET_NO = 999
REV_AT_EPOCH   = 524
BSTAR          = -.66438378E-3
MEAN_MOTION_DOT = -.37232E-3
MEAN_MOTION_DDOT = 0

CCSDS_OMM_VERS = 2.0
CREATION_DATE  = 
ORIGINATOR     = 

OBJECT_NAME    = STARLINK-35494
OBJECT_ID      = 2025-225T
CENTER_NAME    = EARTH
REF_FRAME      = TEME
TIME_SYSTEM    = UTC
MEAN_ELEMENT_THEORY = SGP/SGP4

EPOCH          = 2025-11-04T06:00:02.000160
MEAN_MOTION    = 15.49312705
ECCENTRICITY   = .00008529
INCLINATION    = 53.1608
RA_OF_ASC_NODE = 30.3214
ARG_OF_PERICENTER = 89.8770
MEAN_ANOMALY   = 309.2047

EPHEMERIS_TYPE = 0
CLASSIFICATION_TYPE = U
NORAD_CAT_ID   = 65927
ELEMENT_SET_NO = 999
REV_AT_EPOCH   = 524
BSTAR          = -.49807526E-3
MEAN_MOTION_DOT = -.28052E-3
MEAN_MOTION_DDOT = 0

CCSDS_OMM_VERS = 2.0
CREATION_DATE  = 
ORIGINATOR     = 

OBJECT_NAME    = STARLINK-35493
OBJECT_ID      = 2025-225U
CENTER_NAME    = EARTH
REF_FRAME      = TEME
TIME_SYSTEM    = UTC
MEAN_ELEMENT_THEORY = SGP/SGP4

EPOCH          = 2025-11-04T06:00:02.000160
MEAN_MOTION    = 15.49312356
ECCENTRICITY   = .00009572
INCLINATION    = 53.1609
RA_OF_ASC_NODE = 30.3134
ARG_OF_PERICENTER = 99.0985
MEAN_ANOMALY   = 303.8166

EPHEMERIS_TYPE = 0
CLASSIFICATION_TYPE = U
NORAD_CAT_ID   = 65928
ELEMENT_SET_NO = 999
REV_AT_EPOCH   = 519
BSTAR          = -.46771895E-3
MEAN_MOTION_DOT = -.26376E-3
MEAN_MOTION_DDOT = 0

CCSDS_OMM_VERS = 2.0
CREATION_DATE  = 
ORIGINATOR     = 

OBJECT_NAME    = STARLINK-35175
OBJECT_ID      = 2025-225V
CENTER_NAME    = EARTH
REF_FRAME      = TEME
TIME_SYSTEM    = UTC
MEAN_ELEMENT_THEORY = SGP/SGP4

EPOCH          = 2025-11-04T06:00:02.000160
MEAN_MOTION    = 15.49304907
ECCENTRICITY   = .0001109
INCLINATION    = 53.1607
RA_OF_ASC_NODE = 30.3098
ARG_OF_PERICENTER = 98.1734
MEAN_ANOMALY   = 306.6650

EPHEMERIS_TYPE = 0
CLASSIFICATION_TYPE = U
NORAD_CAT_ID   = 65929
ELEMENT_SET_NO = 999
REV_AT_EPOCH   = 524
BSTAR          = -.26516153E-3
MEAN_MOTION_DOT = -.15164E-3
MEAN_MOTION_DDOT = 0

