STARLINK-35516          
1 65918U 25225J   25308.25002315  .00090488  00000+0  16199-2 0  9997
2 65918  53.1608  30.3626 0001121  96.2761 283.6653 15.49244233  5230
STARLINK-35519          
1 65919U 25225K   25308.25002315  .00085469  00000+0  15314-2 0  9999
2 65919  53.1607  30.3547 0001195  98.7199 285.0519 15.49246859  5238
STARLINK-33902          
1 65920U 25225L   25308.25002315  .00093706  00000+0  16766-2 0  9996
2 65920  53.1611  30.3503 0001044  89.9864 295.7036 15.49242844  5222
STARLINK-35530          
1 65921U 25225M   25308.25002315  .00079510  00000+0  14261-2 0  9992
2 65921  53.1606  30.3468 0001024  92.5305 295.0762 15.49249127  5180
STARLINK-35544          
1 65922U 25225N   25308.25002315  .00088978  00000+0  15932-2 0  9997
2 65922  53.1610  30.3426 0000974  87.7163 301.8059 15.49246269  5247
STARLINK-35484          
1 65923U 25225P   25308.25002315 -.00022802  00000+0 -40309-3 0  9991
2 65923  53.1607  30.3386 0001005 100.9645 290.4491 15.49311206  5245
STARLINK-34994          
1 65924U 25225Q   25308.25002315  .00136392  00000+0  24236-2 0  9990
2 65924  53.1607  30.3346 0001074  99.2533 294.0950 15.49240793  5246
STARLINK-35458          
1 65925U 25225R   25308.25002315  .00078438  00000+0  14072-2 0  9994
2 65925  53.1607  30.3261 0001056 103.5384 293.6509 15.49249287  5248
STARLINK-35492          
1 65926U 25225S   25308.25002315 -.00037232  00000+0 -66438-3 0  9998
2 65926  53.1607  30.3302 0000941 104.7155 290.5321 15.49316567  5240
STARLINK-35494          
1 65927U 25225T   25308.25002315 -.00028052  00000+0 -49808-3 0  9991
2 65927  53.1608  30.3214 0000852  89.8770 309.2047 15.49312705  5244
STARLINK-35493          
1 65928U 25225U   25308.25002315 -.00026376  00000+0 -46772-3 0  9996
2 65928  53.1609  30.3134 0000957  99.0985 303.8166 15.49312356  5192
STARLINK-35175          
1 65929U 25225V   25308.25002315 -.00015164  00000+0 -26516-3 0  9994
2 65929  53.1607  30.3098 0001109  98.1734 306.6650 15.49304907  5240
